#cP2005  4 13 00 00 00.00000000    2880 *POS* WGS84 FIT DLR*
## 1318 259200.00000000    30.00000000 53473 0.0000000000000
+    1   L06  0  0  0  0  0  0  0  0  0  0  0  0  0  0  0  0
+          0  0  0  0  0  0  0  0  0  0  0  0  0  0  0  0  0
+          0  0  0  0  0  0  0  0  0  0  0  0  0  0  0  0  0
+          0  0  0  0  0  0  0  0  0  0  0  0  0  0  0  0  0
+          0  0  0  0  0  0  0  0  0  0  0  0  0  0  0  0  0
++         0  0  0  0  0  0  0  0  0  0  0  0  0  0  0  0  0
++         0  0  0  0  0  0  0  0  0  0  0  0  0  0  0  0  0
++         0  0  0  0  0  0  0  0  0  0  0  0  0  0  0  0  0
++         0  0  0  0  0  0  0  0  0  0  0  0  0  0  0  0  0
++         0  0  0  0  0  0  0  0  0  0  0  0  0  0  0  0  0
%c cc cc ccc ccc cccc cccc cccc cccc ccccc ccccc ccccc ccccc
%c cc cc ccc ccc cccc cccc cccc cccc ccccc ccccc ccccc ccccc
%f   .0000000   .000000000   .00000000000   .000000000000000
%f   .0000000   .000000000   .00000000000   .000000000000000
%i    0    0    0    0      0      0      0      0         0
%i    0    0    0    0      0      0      0      0         0
/* NOTE: CCCCCCCCCCCCCCCCCCCCCCCCCCCCCCCCCCCCCCCCCCCCCCCCCCC
/* CCCCCCCCCCCCCCCCCCCCCCCCCCCCCCCCCCCCCCCCCCCCCCCCCCCCCCCCC
/* CCCCCCCCCCCCCCCCCCCCCCCCCCCCCCCCCCCCCCCCCCCCCCCCCCCCCCCCC
/* CCCCCCCCCCCCCCCCCCCCCCCCCCCCCCCCCCCCCCCCCCCCCCCCCCCCCCCCC
*  2005 04 13 01 33 00.00000000
PL06   5386.945525  -1784.355952   3625.017423 999999.000000
*  2005 04 13 01 33 30.00000000
PL06   5266.059167  -1743.259257   3816.919352 999999.000000
*  2005 04 13 01 34 00.00000000
PL06   5139.201333  -1699.582380   4004.327403 999999.000000
*  2005 04 13 01 34 30.00000000
PL06   5006.532063  -1653.350791   4187.021316 999999.000000
*  2005 04 13 01 35 00.00000000
PL06   4868.218085  -1604.593667   4364.786443 999999.000000
*  2005 04 13 01 35 30.00000000
PL06   4724.432599  -1553.343880   4537.414006 999999.000000
*  2005 04 13 01 36 00.00000000
PL06   4575.355051  -1499.637981   4704.701337 999999.000000
*  2005 04 13 01 36 30.00000000
PL06   4421.170907  -1443.516180   4866.452119 999999.000000
*  2005 04 13 01 37 00.00000000
PL06   4262.071407  -1385.022332   5022.476620 999999.000000
*  2005 04 13 01 37 30.00000000
PL06   4098.253317  -1324.203898   5172.591915 999999.000000
*  2005 04 13 01 38 00.00000000
PL06   3929.918663  -1261.111911   5316.622095 999999.000000
*  2005 04 13 01 38 30.00000000
PL06   3757.274475  -1195.800935   5454.398459 999999.000000
*  2005 04 13 01 39 00.00000000
PL06   3580.532520  -1128.329032   5585.759703 999999.000000
*  2005 04 13 01 39 30.00000000
PL06   3399.909037  -1058.757708   5710.552103 999999.000000
*  2005 04 13 01 40 00.00000000
PL06   3215.624468   -987.151856   5828.629690 999999.000000
*  2005 04 13 01 40 30.00000000
PL06   3027.903173   -913.579692   5939.854408 999999.000000
*  2005 04 13 01 41 00.00000000
PL06   2836.973160   -838.112698   6044.096258 999999.000000
*  2005 04 13 01 41 30.00000000
PL06   2643.065815   -760.825551   6141.233444 999999.000000
*  2005 04 13 01 42 00.00000000
PL06   2446.415625   -681.796056   6231.152530 999999.000000
*  2005 04 13 01 42 30.00000000
PL06   2247.259869   -601.105054   6313.748574 999999.000000
*  2005 04 13 01 43 00.00000000
PL06   2045.838329   -518.836345   6388.925227 999999.000000
*  2005 04 13 01 43 30.00000000
PL06   1842.393000   -435.076599   6456.594839 999999.000000
*  2005 04 13 01 44 00.00000000
PL06   1637.167802   -349.915268   6516.678559 999999.000000
*  2005 04 13 01 44 30.00000000
PL06   1430.408269   -263.444484   6569.106420 999999.000000
*  2005 04 13 01 45 00.00000000
PL06   1222.361250   -175.758965   6613.817403 999999.000000
*  2005 04 13 01 45 30.00000000
PL06   1013.274616    -86.955918   6650.759484 999999.000000
*  2005 04 13 01 46 00.00000000
PL06    803.396989      2.865064   6679.889701 999999.000000
*  2005 04 13 01 46 30.00000000
PL06    592.977444     93.602120   6701.174211 999999.000000
*  2005 04 13 01 47 00.00000000
PL06    382.265202    185.151247   6714.588330 999999.000000
*  2005 04 13 01 47 30.00000000
PL06    171.509343    277.406413   6720.116552 999999.000000
*  2005 04 13 01 48 00.00000000
PL06    -39.041490    370.259678   6717.752564 999999.000000
*  2005 04 13 01 48 30.00000000
PL06   -249.139380    463.601323   6707.499253 999999.000000
*  2005 04 13 01 49 00.00000000
PL06   -458.537431    557.319974   6689.368698 999999.000000
*  2005 04 13 01 49 30.00000000
PL06   -666.990053    651.302734   6663.382156 999999.000000
*  2005 04 13 01 50 00.00000000
PL06   -874.253246    745.435325   6629.570043 999999.000000
*  2005 04 13 01 50 30.00000000
PL06  -1080.084892    839.602218   6587.971886 999999.000000
*  2005 04 13 01 51 00.00000000
PL06  -1284.245021    933.686771   6538.636288 999999.000000
*  2005 04 13 01 51 30.00000000
PL06  -1486.496092   1027.571377   6481.620881 999999.000000
*  2005 04 13 01 52 00.00000000
PL06  -1686.603274   1121.137616   6416.992271 999999.000000
*  2005 04 13 01 52 30.00000000
PL06  -1884.334727   1214.266400   6344.825954 999999.000000
*  2005 04 13 01 53 00.00000000
PL06  -2079.461863   1306.838124   6265.206227 999999.000000
*  2005 04 13 01 53 30.00000000
PL06  -2271.759604   1398.732816   6178.226101 999999.000000
*  2005 04 13 01 54 00.00000000
PL06  -2461.006646   1489.830292   6083.987200 999999.000000
*  2005 04 13 01 54 30.00000000
PL06  -2646.985711   1580.010310   5982.599656 999999.000000
*  2005 04 13 01 55 00.00000000
PL06  -2829.483809   1669.152727   5874.181989 999999.000000
*  2005 04 13 01 55 30.00000000
PL06  -3008.292477   1757.137660   5758.860983 999999.000000
*  2005 04 13 01 56 00.00000000
PL06  -3183.208040   1843.845657   5636.771545 999999.000000
*  2005 04 13 01 56 30.00000000
PL06  -3354.031839   1929.157851   5508.056545 999999.000000
*  2005 04 13 01 57 00.00000000
PL06  -3520.570466   2012.956122   5372.866661 999999.000000
*  2005 04 13 01 57 30.00000000
PL06  -3682.635988   2095.123267   5231.360208 999999.000000
*  2005 04 13 01 58 00.00000000
PL06  -3840.046163   2175.543164   5083.702957 999999.000000
*  2005 04 13 01 58 30.00000000
PL06  -3992.624651   2254.100933   4930.067948 999999.000000
*  2005 04 13 01 59 00.00000000
PL06  -4140.201224   2330.683103   4770.635313 999999.000000
*  2005 04 13 01 59 30.00000000
PL06  -4282.611997   2405.177778   4605.592059 999999.000000
*  2005 04 13 02 00 00.00000000
PL06  -4419.699611   2477.474778   4435.131805 999999.000000
*  2005 04 13 02 00 30.00000000
PL06  -4551.313358   2547.465798   4259.454578 999999.000000
*  2005 04 13 02 01 00.00000000
PL06  -4677.309386   2615.044588   4078.766619 999999.000000
*  2005 04 13 02 01 30.00000000
PL06  -4797.550887   2680.107108   3893.280122 999999.000000
*  2005 04 13 02 02 00.00000000
PL06  -4911.908240   2742.551677   3703.212974 999999.000000
*  2005 04 13 02 02 30.00000000
PL06  -5020.259151   2802.279126   3508.788507 999999.000000
*  2005 04 13 02 03 00.00000000
PL06  -5122.488799   2859.192957   3310.235236 999999.000000
*  2005 04 13 02 03 30.00000000
PL06  -5218.489956   2913.199487   3107.786591 999999.000000
*  2005 04 13 02 04 00.00000000
PL06  -5308.163115   2964.207998   2901.680642 999999.000000
*  2005 04 13 02 04 30.00000000
PL06  -5391.416600   3012.130881   2692.159819 999999.000000
*  2005 04 13 02 05 00.00000000
PL06  -5468.166673   3056.883777   2479.470626 999999.000000
*  2005 04 13 02 05 30.00000000
PL06  -5538.337626   3098.385718   2263.863345 999999.000000
*  2005 04 13 02 06 00.00000000
PL06  -5601.861860   3136.559270   2045.591728 999999.000000
*  2005 04 13 02 06 30.00000000
PL06  -5658.679959   3171.330655   1824.912693 999999.000000
*  2005 04 13 02 07 00.00000000
PL06  -5708.740742   3202.629886   1602.086006 999999.000000
*  2005 04 13 02 07 30.00000000
PL06  -5752.001317   3230.390880   1377.373966 999999.000000
*  2005 04 13 02 08 00.00000000
PL06  -5788.427103   3254.551572   1151.041078 999999.000000
*  2005 04 13 02 08 30.00000000
PL06  -5817.991849   3275.054012    923.353740 999999.000000
*  2005 04 13 02 09 00.00000000
PL06  -5840.677647   3291.844477    694.579938 999999.000000
*  2005 04 13 02 09 30.00000000
PL06  -5856.474961   3304.873580    464.988922 999999.000000
*  2005 04 13 02 10 00.00000000
PL06  -5865.382612   3314.096368    234.850854 999999.000000
*  2005 04 13 02 10 30.00000000
PL06  -5867.407748   3319.472396      4.436471 999999.000000
*  2005 04 13 02 11 00.00000000
PL06  -5862.565795   3320.965807   -225.983228 999999.000000
*  2005 04 13 02 11 30.00000000
PL06  -5850.880420   3318.545410   -456.137295 999999.000000
*  2005 04 13 02 12 00.00000000
PL06  -5832.383505   3312.184752   -685.755142 999999.000000
*  2005 04 13 02 12 30.00000000
PL06  -5807.115126   3301.862205   -914.566915 999999.000000
*  2005 04 13 02 13 00.00000000
PL06  -5775.123414   3287.560991  -1142.303843 999999.000000
*  2005 04 13 02 13 30.00000000
PL06  -5736.464471   3269.269245  -1368.698507 999999.000000
*  2005 04 13 02 14 00.00000000
PL06  -5691.202311   3246.980080  -1593.485193 999999.000000
*  2005 04 13 02 14 30.00000000
PL06  -5639.408714   3220.691602  -1816.400242 999999.000000
*  2005 04 13 02 15 00.00000000
PL06  -5581.163098   3190.406930  -2037.182325 999999.000000
*  2005 04 13 02 15 30.00000000
PL06  -5516.552419   3156.134227  -2255.572752 999999.000000
*  2005 04 13 02 16 00.00000000
PL06  -5445.671034   3117.886720  -2471.315786 999999.000000
*  2005 04 13 02 16 30.00000000
PL06  -5368.620558   3075.682708  -2684.158951 999999.000000
*  2005 04 13 02 17 00.00000000
PL06  -5285.509712   3029.545566  -2893.853330 999999.000000
*  2005 04 13 02 17 30.00000000
PL06  -5196.454161   2979.503736  -3100.153865 999999.000000
*  2005 04 13 02 18 00.00000000
PL06  -5101.576334   2925.590721  -3302.819639 999999.000000
*  2005 04 13 02 18 30.00000000
PL06  -5001.005242   2867.845070  -3501.614154 999999.000000
*  2005 04 13 02 19 00.00000000
PL06  -4894.876296   2806.310350  -3696.305593 999999.000000
EOF
